ONEWEB-0228             
1 48780U 21045P   24259.37604765  .00000077  00000+0  17183-3 0  9995
2 48780  87.9088  26.4994 0001744 102.8435 257.2890 13.15550699161333
